GLOBALSTAR M045 [-]     
1 25676U 99019A   23319.51462001 -.00000064  00000+0  26473-3 0  9996
2 25676  51.9945 157.4024 0001667 107.1037 268.4291 12.27019506122238
GLOBALSTAR M019 [-]     
1 25677U 99019B   23319.26156101 -.00000188  00000+0 -10227-2 0  9997
2 25677  51.9878 247.6963 0000204 204.1142 322.5789 12.13846117114718
GLOBALSTAR M044 [-]     
1 25678U 99019C   23318.90613889 -.00000081  00000+0  39315-4 0  9991
2 25678  51.9939 127.4491 0006350  10.2412 137.4008 11.90227095102224
GLOBALSTAR M042 [-]     
1 25679U 99019D   23319.27487049 -.00000068  00000+0  22280-3 0  9997
2 25679  52.0013 248.0138 0002618 171.4508 355.2902 12.22051125114352
GLOBALSTAR M025 [-]     
1 25770U 99031A   23319.54848124 -.00000070  00000+0 -70735-4 0  9991
2 25770  51.9827  62.0321 0000893 218.7416 276.3047 11.22547066 74271
GLOBALSTAR M049 [-]     
1 25771U 99031B   23319.60820606 -.00000154  00000+0 -30820-2 0  9996
2 25771  51.9883  67.5288 0003629 121.5142 238.6009 11.12101842 52949
GLOBALSTAR M047 [-]     
1 25772U 99031C   23318.87712104 -.00000084  00000+0 -39768-3 0  9991
2 25772  51.9801 121.5978 0015871 350.4630   9.5873 11.31917311 80160
GLOBALSTAR M052 [-]     
1 25773U 99031D   23319.07412781 -.00000076  00000+0 -35606-3 0  9991
2 25773  51.9840 185.5745 0001631 318.9915 212.3668 11.15047159413791
